[{"OBJECT_NAME":"STARLINK-4409","OBJECT_ID":"2022-084Q","EPOCH":"2026-03-09T17:05:49.195680","MEAN_MOTION":15.05646193,"ECCENTRICITY":7.741e-5,"INCLINATION":97.6037,"RA_OF_ASC_NODE":131.2454,"ARG_OF_PERICENTER":138.4317,"MEAN_ANOMALY":221.6969,"EPHEMERIS_TYPE":0,"CLASSIFICATION_TYPE":"U","NORAD_CAT_ID":53203,"ELEMENT_SET_NO":999,"REV_AT_EPOCH":19938,"BSTAR":3.97646e-7,"MEAN_MOTION_DOT":-5.5e-7,"MEAN_MOTION_DDOT":0},{"OBJECT_NAME":"ELECTRON KICK STAGE R\/B","OBJECT_ID":"2025-050C","EPOCH":"2026-03-09T00:02:16.856736","MEAN_MOTION":15.02509392,"ECCENTRICITY":0.00035941,"INCLINATION":42.0177,"RA_OF_ASC_NODE":293.46,"ARG_OF_PERICENTER":187.3175,"MEAN_ANOMALY":172.76,"EPHEMERIS_TYPE":0,"CLASSIFICATION_TYPE":"U","NORAD_CAT_ID":63207,"ELEMENT_SET_NO":999,"REV_AT_EPOCH":5391,"BSTAR":0.00054837611,"MEAN_MOTION_DOT":7.227e-5,"MEAN_MOTION_DDOT":0}]
